[{"OBJECT_NAME":"STARLINK-5567","OBJECT_ID":"2023-013AY","EPOCH":"2026-03-09T02:02:37.993344","MEAN_MOTION":15.02535584,"ECCENTRICITY":0.00012696,"INCLINATION":43.0046,"RA_OF_ASC_NODE":316.1619,"ARG_OF_PERICENTER":267.8735,"MEAN_ANOMALY":92.1962,"EPHEMERIS_TYPE":0,"CLASSIFICATION_TYPE":"U","NORAD_CAT_ID":55377,"ELEMENT_SET_NO":999,"REV_AT_EPOCH":17147,"BSTAR":-4.436112e-6,"MEAN_MOTION_DOT":-2.64e-6,"MEAN_MOTION_DDOT":0},{"OBJECT_NAME":"RAPIDEYE 5","OBJECT_ID":"2008-040B","EPOCH":"2026-03-09T15:17:22.403904","MEAN_MOTION":15.02179038,"ECCENTRICITY":0.0014834,"INCLINATION":97.3944,"RA_OF_ASC_NODE":91.3825,"ARG_OF_PERICENTER":86.9831,"MEAN_ANOMALY":273.3091,"EPHEMERIS_TYPE":0,"CLASSIFICATION_TYPE":"U","NORAD_CAT_ID":33313,"ELEMENT_SET_NO":999,"REV_AT_EPOCH":95055,"BSTAR":0.00014028,"MEAN_MOTION_DOT":1.794e-5,"MEAN_MOTION_DDOT":0}]
